STARLINK-32731          
1 62493U 25003G   25347.55202235  .00031202  00000+0  11376-2 0  9996
2 62493  42.9992  55.8010 0001156 261.1033  98.9688 15.27609205 53495
STARLINK-32694          
1 62494U 25003H   25347.50319686  .00040981  00000+0  14884-2 0  9992
2 62494  42.9976  55.4328 0001057 255.5948 104.4786 15.27626838 53491
STARLINK-32708          
1 62495U 25003J   25347.46993207  .00047825  00000+0  17336-2 0  9994
2 62495  43.0005  56.0419 0001506 280.3859  79.6823 15.27629642 53368
STARLINK-32718          
1 62496U 25003K   25347.49934339  .00045006  00000+0  16327-2 0  9997
2 62496  43.0019  55.4081 0000499 264.1736  95.9059 15.27627939 53376
STARLINK-32729          
1 62497U 25003L   25347.50705205  .00043177  00000+0  15671-2 0  9996
2 62497  42.9981  55.4546 0000884 241.1206 118.9557 15.27628710 53494
STARLINK-32739          
1 62498U 25003M   25347.58785179  .00026535  00000+0  96901-3 0  9998
2 62498  43.0018  55.2030 0001448 227.2185 132.8545 15.27623859 53459
STARLINK-32714          
1 62499U 25003N   25347.48535357  .00040592  00000+0  14744-2 0  9992
2 62499  42.9979  56.1609 0000594 226.5818 133.4985 15.27626378 53489
STARLINK-32685          
1 62500U 25003P   25347.47764592  .00046629  00000+0  16904-2 0  9996
2 62500  42.9997  56.1016 0000872 269.6761  90.3990 15.27637227 53435
STARLINK-32691          
1 62501U 25003Q   25347.25962667  .00041368  00000+0  15043-2 0  9994
2 62501  43.0017  57.0365 0001161 222.8128 137.2634 15.27582076 53446
STARLINK-32788          
1 62502U 25003R   25347.25578664  .00030990  00000+0  11302-2 0  9998
2 62502  43.0012  57.0108 0000813 220.6565 139.4226 15.27601329 53333
STARLINK-32768          
1 62503U 25003S   25347.50062613  .00055767  00000+0  20176-2 0  9997
2 62503  43.0017  55.4104 0001184 252.5321 107.5401 15.27632687 53379
STARLINK-32792          
1 62504U 25003T   25347.55701130  .00034975  00000+0  12725-2 0  9996
2 62504  42.9996  54.9731 0001121 259.4983 100.5742 15.27631426 53387
STARLINK-32725          
1 62505U 25003U   25347.55829820  .00033943  00000+0  12358-2 0  9990
2 62505  42.9998  54.9705 0001286 256.1155 103.9554 15.27620730 53382
STARLINK-32681          
1 62506U 25003V   25347.20031234  .00041826  00000+0  15199-2 0  9992
2 62506  43.0027  38.8621 0000428 309.6521  50.4293 15.27601227 53650
STARLINK-32679          
1 62507U 25003W   25347.55458371  .00043370  00000+0  15751-2 0  9996
2 62507  42.9993  55.7805 0001375 266.2824  93.7870 15.27604541 53494
STARLINK-32749          
1 62508U 25003X   25347.24936835  .00036734  00000+0  13370-2 0  9990
2 62508  42.9997  56.9600 0001075 247.6716 112.4021 15.27599774 53336
STARLINK-32744          
1 62509U 25003Y   25347.21995699  .00031935  00000+0  11636-2 0  9992
2 62509  43.0009  57.6101 0000964 243.7754 116.2999 15.27619755 53329
STARLINK-32701          
1 62510U 25003Z   25347.59041983  .00022731  00000+0  83202-3 0  9996
2 62510  43.0032  55.2243 0001989 244.8051 115.2595 15.27617645 53381
STARLINK-11452 [DTC]    
1 62511U 25004A   25347.37435401  .00318463  00000+0  23804-2 0  9997
2 62511  43.0003 230.9882 0001753 259.7867 100.2804 15.70950289 54559
STARLINK-11443 [DTC]    
1 62512U 25004B   25347.40620441  .00272275  00000+0  20490-2 0  9990
2 62512  43.0005 231.2433 0002614 265.0846  94.9723 15.70928450 53634
STARLINK-11440 [DTC]    
1 62513U 25004C   25347.13592132  .00131557  00000+0  10084-2 0  9991
2 62513  42.9988 232.6467 0001003 270.4722  89.6031 15.70938922 53592
STARLINK-11514 [DTC]    
1 62514U 25004D   25346.98845781  .00192660  00000+0  14640-2 0  9999
2 62514  42.9999 233.2490 0001927 257.4928 102.5724 15.70944261 53571
STARLINK-11508 [DTC]    
1 62515U 25004E   25347.68165845  .00209953  00000+0  15880-2 0  9995
2 62515  42.9982 228.9836 0001283 247.8970 112.1761 15.70999774 53683
STARLINK-11510 [DTC]    
1 62516U 25004F   25347.39559763  .00326416  00000+0  24114-2 0  9994
2 62516  42.9993 231.1567 0002308 322.8946  37.1762 15.71206056 53636
STARLINK-11512 [DTC]    
1 62517U 25004G   25347.02989180  .00259126  00000+0  19562-2 0  9999
2 62517  43.0009 232.6856 0002471 263.6295  96.4291 15.70893726 53588
STARLINK-11450 [DTC]    
1 62518U 25004H   25347.37966692  .00337671  00000+0  25088-2 0  9993
2 62518  43.0008 231.0262 0000732 288.5098  71.5690 15.71035474 53639
STARLINK-11507 [DTC]    
1 62519U 25004J   25347.38497820  .00334583  00000+0  24925-2 0  9995
2 62519  42.9993 231.0679 0001231 321.3213  38.7567 15.70982243 53635
STARLINK-11482 [DTC]    
1 62520U 25004K   25347.16237035  .00334180  00000+0  24991-2 0  9999
2 62520  42.9999 231.9611 0001185 259.6215 100.4519 15.70891327 53604
STARLINK-11528 [DTC]    
1 62521U 25004L   25347.40090498  .00514049  00000+0  37213-2 0  9992
2 62521  42.9995 231.1922 0002277 324.5435  35.5281 15.71132954 53639
STARLINK-11516 [DTC]    
1 62522U 25004M   25347.68696084  .00255594  00000+0  19369-2 0  9995
2 62522  42.9999 229.0223 0001375 249.8524 110.2196 15.70813715 53681
STARLINK-11527 [DTC]    
1 62523U 25004N   25347.04053303  .00388971  00000+0  28847-2 0  9994
2 62523  42.9991 232.7694 0001560 357.6736   2.4125 15.70926764 53588
STARLINK-32748          
1 62524U 25004P   25346.74514829  .00032582  00000+0  11894-2 0  9994
2 62524  43.0040 350.7169 0001090 266.5646  93.5081 15.27551308 53166
STARLINK-32777          
1 62525U 25004Q   25347.30806350  .00056409  00000+0  20407-2 0  9995
2 62525  43.0023 348.0576 0001495 277.0670  83.0011 15.27628707 53247
STARLINK-32741          
1 62526U 25004R   25347.36236916  .00046622  00000+0  16907-2 0  9993
2 62526  43.0016 344.1399 0001456 279.4927  80.5760 15.27625159 53294
STARLINK-32754          
1 62527U 25004S   25347.28365566  .00044797  00000+0  16265-2 0  9997
2 62527  43.0008 347.8725 0001446 259.4608 100.6081 15.27601552 52292
STARLINK-32786          
1 62528U 25004T   25347.38100088  .00064336  00000+0  23292-2 0  9994
2 62528  43.0038 346.8816 0001262 290.9064  69.1652 15.27550506 52316
STARLINK-32789          
1 62529U 25004U   25347.42084314  .00050283  00000+0  18216-2 0  9999
2 62529  42.9996 347.1783 0001545 254.1772 105.8909 15.27629027 53260
STARLINK-32791          
1 62530U 25004V   25347.34132613  .00046927  00000+0  17001-2 0  9999
2 62530  43.0003 347.4404 0001446 261.6602  98.4085 15.27655276 53257
STARLINK-32785          
1 62531U 25004W   25347.36317018  .00042034  00000+0  15266-2 0  9992
2 62531  43.0018 347.6139 0001522 261.1466  98.9213 15.27616524 53250
STARLINK-11538 [DTC]    
1 62554U 25006A   25346.94450065  .00501265  00000+0  36268-2 0  9993
2 62554  42.9997 302.4103 0002079 229.2759 130.7928 15.71183340 52966
STARLINK-11534 [DTC]    
1 62555U 25006B   25347.07698000  .00289050  00000+0  21765-2 0  9993
2 62555  42.9999 301.6865 0002326 275.4249  84.6353 15.70863576 52983
STARLINK-11515 [DTC]    
1 62556U 25006C   25346.92870099  .00350225  00000+0  26036-2 0  9996
2 62556  42.9990 303.1775 0001645 243.8679 116.2020 15.70985477 52956
STARLINK-11478 [DTC]    
1 62557U 25006D   25346.90746618  .00374241  00000+0  27719-2 0  9997
2 62557  42.9981 303.0054 0001472 269.7155  90.3544 15.71000956 52954
STARLINK-11358 [DTC]    
1 62558U 25006E   25346.90215611  .00242754  00000+0  18299-2 0  9998
2 62558  42.9987 302.9631 0001608 280.3267  79.7419 15.70979177 52955
STARLINK-11517 [DTC]    
1 62559U 25006F   25347.29427002  .00189918  00000+0  14457-2 0  9995
2 62559  42.9995 300.7490 0001205 262.7470  97.3261 15.70910519 53011
STARLINK-11519 [DTC]    
1 62560U 25006G   25347.66679398  .00044951  00000+0  35290-3 0  9991
2 62560  43.0002 298.8137 0001575 265.7282 278.1296 15.70772983  5894
STARLINK-11451 [DTC]    
1 62561U 25006H   25346.25571787  .00339294  00000+0  25439-2 0  9999
2 62561  42.9985 306.7095 0001849 298.2221  61.8460 15.70814884 52858
STARLINK-11530 [DTC]    
1 62562U 25006J   25347.56985206  .00317139  00000+0  23741-2 0  9998
2 62562  43.0000 299.3848 0001839  29.9890 330.1082 15.70918198 53050
STARLINK-11536 [DTC]    
1 62563U 25006K   25347.15117605  .00135198  00000+0  10366-2 0  9996
2 62563  43.0006 301.3836 0001439 265.0383  95.0320 15.70919002 52993
STARLINK-11540 [DTC]    
1 62564U 25006L   25347.23599350  .00175730  00000+0  13386-2 0  9998
2 62564  42.9977 301.1715 0001631 261.5918  98.4765 15.70939495 53003
STARLINK-11523 [DTC]    
1 62565U 25006M   25347.30488775  .00263147  00000+0  19815-2 0  9998
2 62565  42.9984 300.8319 0000923 275.0992  84.9771 15.70941478 53015
STARLINK-11525 [DTC]    
1 62566U 25006N   25347.63872347 -.00032498  00000+0 -25062-3 0  9994
2 62566  42.9993 299.0418 0001660 260.6461  99.4219 15.70852185 53064
STARLINK-32752          
1 62567U 25006P   25347.58869620  .00035049  00000+0  12753-2 0  9994
2 62567  43.0028  58.9141 0001484 239.2162 120.8543 15.27627769 51691
STARLINK-32760          
1 62568U 25006Q   25347.59383876  .00026991  00000+0  98675-3 0  9994
2 62568  42.9962  58.9388 0001513  66.9344 293.1667 15.27580747 51695
STARLINK-32715          
1 62569U 25006R   25347.60282679  .00024650  00000+0  90105-3 0  9996
2 62569  43.0007  59.0201 0000648 278.5900  81.4878 15.27625916 51691
STARLINK-32764          
1 62570U 25006S   25347.61053492  .00036483  00000+0  13274-2 0  9996
2 62570  43.0014  59.0739 0001607 267.4022  92.6646 15.27612938 51692
STARLINK-32773          
1 62571U 25006T   25347.50532254  .00039050  00000+0  14191-2 0  9995
2 62571  43.0009  59.1526 0000804 246.9265 113.1502 15.27625217 51684
STARLINK-32750          
1 62572U 25006U   25347.61810154  .00015734  00000+0  57963-3 0  9994
2 62572  42.9980  58.2626 0001499 253.6346 106.4341 15.27604102 51707
STARLINK-32771          
1 62573U 25006V   25347.56301886  .00025361  00000+0  92908-3 0  9991
2 62573  42.9989  58.7169 0001532 286.2741  73.7942 15.27540064 51690
